CCSDS_OMM_VERS = 2.0
CREATION_DATE  = 
ORIGINATOR     = 

OBJECT_NAME    = COSMOS 2058
OBJECT_ID      = 1990-010A
CENTER_NAME    = EARTH
REF_FRAME      = TEME
TIME_SYSTEM    = UTC
MEAN_ELEMENT_THEORY = SGP/SGP4

EPOCH          = 2026-03-24T22:36:08.232480
MEAN_MOTION    = 15.11453098
ECCENTRICITY   = .00074725
INCLINATION    = 82.4683
RA_OF_ASC_NODE = 32.3981
ARG_OF_PERICENTER = 285.9134
MEAN_ANOMALY   = 74.1272

EPHEMERIS_TYPE = 0
CLASSIFICATION_TYPE = U
NORAD_CAT_ID   = 20465
ELEMENT_SET_NO = 999
REV_AT_EPOCH   = 94454
BSTAR          = .25371525E-3
MEAN_MOTION_DOT = .4319E-4
MEAN_MOTION_DDOT = 0

CCSDS_OMM_VERS = 2.0
CREATION_DATE  = 
ORIGINATOR     = 

OBJECT_NAME    = SL-14 R/B
OBJECT_ID      = 1990-010B
CENTER_NAME    = EARTH
REF_FRAME      = TEME
TIME_SYSTEM    = UTC
MEAN_ELEMENT_THEORY = SGP/SGP4

EPOCH          = 2026-03-24T22:18:51.997536
MEAN_MOTION    = 14.83582038
ECCENTRICITY   = .0018428
INCLINATION    = 82.4991
RA_OF_ASC_NODE = 253.0688
ARG_OF_PERICENTER = 248.0989
MEAN_ANOMALY   = 111.8267

EPHEMERIS_TYPE = 0
CLASSIFICATION_TYPE = U
NORAD_CAT_ID   = 20466
ELEMENT_SET_NO = 999
REV_AT_EPOCH   = 93074
BSTAR          = .5383284E-4
MEAN_MOTION_DOT = .468E-5
MEAN_MOTION_DDOT = 0

CCSDS_OMM_VERS = 2.0
CREATION_DATE  = 
ORIGINATOR     = 

OBJECT_NAME    = SL-14 R/B
OBJECT_ID      = 1990-018B
CENTER_NAME    = EARTH
REF_FRAME      = TEME
TIME_SYSTEM    = UTC
MEAN_ELEMENT_THEORY = SGP/SGP4

EPOCH          = 2026-03-24T14:59:31.893216
MEAN_MOTION    = 14.82159292
ECCENTRICITY   = .00172235
INCLINATION    = 82.5230
RA_OF_ASC_NODE = 209.1321
ARG_OF_PERICENTER = 46.6416
MEAN_ANOMALY   = 313.6229

EPHEMERIS_TYPE = 0
CLASSIFICATION_TYPE = U
NORAD_CAT_ID   = 20511
ELEMENT_SET_NO = 999
REV_AT_EPOCH   = 92479
BSTAR          = .5501626E-4
MEAN_MOTION_DOT = .463E-5
MEAN_MOTION_DDOT = 0

CCSDS_OMM_VERS = 2.0
CREATION_DATE  = 
ORIGINATOR     = 

OBJECT_NAME    = HST
OBJECT_ID      = 1990-037B
CENTER_NAME    = EARTH
REF_FRAME      = TEME
TIME_SYSTEM    = UTC
MEAN_ELEMENT_THEORY = SGP/SGP4

EPOCH          = 2026-03-24T21:12:41.773248
MEAN_MOTION    = 15.29712210
ECCENTRICITY   = .00015023
INCLINATION    = 28.4720
RA_OF_ASC_NODE = 296.3339
ARG_OF_PERICENTER = 302.0996
MEAN_ANOMALY   = 57.9454

EPHEMERIS_TYPE = 0
CLASSIFICATION_TYPE = U
NORAD_CAT_ID   = 20580
ELEMENT_SET_NO = 999
REV_AT_EPOCH   = 77564
BSTAR          = .22149679E-3
MEAN_MOTION_DOT = .6792E-4
MEAN_MOTION_DDOT = 0

CCSDS_OMM_VERS = 2.0
CREATION_DATE  = 
ORIGINATOR     = 

OBJECT_NAME    = SL-16 R/B
OBJECT_ID      = 1990-046B
CENTER_NAME    = EARTH
REF_FRAME      = TEME
TIME_SYSTEM    = UTC
MEAN_ELEMENT_THEORY = SGP/SGP4

EPOCH          = 2026-03-24T23:11:57.229440
MEAN_MOTION    = 14.15013575
ECCENTRICITY   = .00162885
INCLINATION    = 70.9953
RA_OF_ASC_NODE = 265.8270
ARG_OF_PERICENTER = 279.6356
MEAN_ANOMALY   = 80.2926

EPHEMERIS_TYPE = 0
CLASSIFICATION_TYPE = U
NORAD_CAT_ID   = 20625
ELEMENT_SET_NO = 999
REV_AT_EPOCH   = 85055
BSTAR          = .11680816E-3
MEAN_MOTION_DOT = .179E-5
MEAN_MOTION_DDOT = 0

CCSDS_OMM_VERS = 2.0
CREATION_DATE  = 
ORIGINATOR     = 

OBJECT_NAME    = COSMOS 2084
OBJECT_ID      = 1990-055A
CENTER_NAME    = EARTH
REF_FRAME      = TEME
TIME_SYSTEM    = UTC
MEAN_ELEMENT_THEORY = SGP/SGP4

EPOCH          = 2026-03-24T22:19:50.758176
MEAN_MOTION    = 15.05730685
ECCENTRICITY   = .00146933
INCLINATION    = 62.7893
RA_OF_ASC_NODE = 283.5930
ARG_OF_PERICENTER = 194.4805
MEAN_ANOMALY   = 165.5877

EPHEMERIS_TYPE = 0
CLASSIFICATION_TYPE = U
NORAD_CAT_ID   = 20663
ELEMENT_SET_NO = 999
REV_AT_EPOCH   = 93861
BSTAR          = .17206779E-3
MEAN_MOTION_DOT = .2305E-4
MEAN_MOTION_DDOT = 0

CCSDS_OMM_VERS = 2.0
CREATION_DATE  = 
ORIGINATOR     = 

OBJECT_NAME    = SL-6 R/B(2)
OBJECT_ID      = 1990-055D
CENTER_NAME    = EARTH
REF_FRAME      = TEME
TIME_SYSTEM    = UTC
MEAN_ELEMENT_THEORY = SGP/SGP4

EPOCH          = 2026-03-24T14:26:06.892224
MEAN_MOTION    = 15.03664770
ECCENTRICITY   = .00272448
INCLINATION    = 62.7830
RA_OF_ASC_NODE = 203.1371
ARG_OF_PERICENTER = 350.4966
MEAN_ANOMALY   = 9.5614

EPHEMERIS_TYPE = 0
CLASSIFICATION_TYPE = U
NORAD_CAT_ID   = 20666
ELEMENT_SET_NO = 999
REV_AT_EPOCH   = 94043
BSTAR          = .16678282E-3
MEAN_MOTION_DOT = .211E-4
MEAN_MOTION_DDOT = 0

CCSDS_OMM_VERS = 2.0
CREATION_DATE  = 
ORIGINATOR     = 

OBJECT_NAME    = SL-8 R/B
OBJECT_ID      = 1990-078B
CENTER_NAME    = EARTH
REF_FRAME      = TEME
TIME_SYSTEM    = UTC
MEAN_ELEMENT_THEORY = SGP/SGP4

EPOCH          = 2026-03-24T21:27:01.623456
MEAN_MOTION    = 14.89530990
ECCENTRICITY   = .03591279
INCLINATION    = 82.9019
RA_OF_ASC_NODE = 237.6291
ARG_OF_PERICENTER = 322.7617
MEAN_ANOMALY   = 34.9173

EPHEMERIS_TYPE = 0
CLASSIFICATION_TYPE = U
NORAD_CAT_ID   = 20775
ELEMENT_SET_NO = 999
REV_AT_EPOCH   = 81156
BSTAR          = .38535069E-3
MEAN_MOTION_DOT = .13022E-3
MEAN_MOTION_DDOT = 0

CCSDS_OMM_VERS = 2.0
CREATION_DATE  = 
ORIGINATOR     = 

OBJECT_NAME    = SL-8 R/B
OBJECT_ID      = 1991-006B
CENTER_NAME    = EARTH
REF_FRAME      = TEME
TIME_SYSTEM    = UTC
MEAN_ELEMENT_THEORY = SGP/SGP4

EPOCH          = 2026-03-24T23:21:25.546176
MEAN_MOTION    = 13.77496496
ECCENTRICITY   = .00221024
INCLINATION    = 82.9452
RA_OF_ASC_NODE = 158.6837
ARG_OF_PERICENTER = 356.1289
MEAN_ANOMALY   = 176.8187

EPHEMERIS_TYPE = 0
CLASSIFICATION_TYPE = U
NORAD_CAT_ID   = 21088
ELEMENT_SET_NO = 999
REV_AT_EPOCH   = 76617
BSTAR          = .73107952E-4
MEAN_MOTION_DOT = .88E-6
MEAN_MOTION_DDOT = 0

CCSDS_OMM_VERS = 2.0
CREATION_DATE  = 
ORIGINATOR     = 

OBJECT_NAME    = OKEAN-3
OBJECT_ID      = 1991-039A
CENTER_NAME    = EARTH
REF_FRAME      = TEME
TIME_SYSTEM    = UTC
MEAN_ELEMENT_THEORY = SGP/SGP4

EPOCH          = 2026-03-24T21:44:36.424032
MEAN_MOTION    = 15.04895664
ECCENTRICITY   = .00123754
INCLINATION    = 82.5168
RA_OF_ASC_NODE = 322.1016
ARG_OF_PERICENTER = 280.2361
MEAN_ANOMALY   = 79.7470

EPHEMERIS_TYPE = 0
CLASSIFICATION_TYPE = U
NORAD_CAT_ID   = 21397
ELEMENT_SET_NO = 999
REV_AT_EPOCH   = 86732
BSTAR          = .13888579E-3
MEAN_MOTION_DOT = .1995E-4
MEAN_MOTION_DDOT = 0

CCSDS_OMM_VERS = 2.0
CREATION_DATE  = 
ORIGINATOR     = 

OBJECT_NAME    = COSMOS 2151
OBJECT_ID      = 1991-042A
CENTER_NAME    = EARTH
REF_FRAME      = TEME
TIME_SYSTEM    = UTC
MEAN_ELEMENT_THEORY = SGP/SGP4

EPOCH          = 2026-03-24T22:59:46.839264
MEAN_MOTION    = 15.00165453
ECCENTRICITY   = .00128828
INCLINATION    = 82.4943
RA_OF_ASC_NODE = 68.9430
ARG_OF_PERICENTER = 16.3032
MEAN_ANOMALY   = 343.8603

EPHEMERIS_TYPE = 0
CLASSIFICATION_TYPE = U
NORAD_CAT_ID   = 21422
ELEMENT_SET_NO = 999
REV_AT_EPOCH   = 86548
BSTAR          = .18656522E-3
MEAN_MOTION_DOT = .2359E-4
MEAN_MOTION_DDOT = 0

CCSDS_OMM_VERS = 2.0
CREATION_DATE  = 
ORIGINATOR     = 

OBJECT_NAME    = SL-14 R/B
OBJECT_ID      = 1991-042B
CENTER_NAME    = EARTH
REF_FRAME      = TEME
TIME_SYSTEM    = UTC
MEAN_ELEMENT_THEORY = SGP/SGP4

EPOCH          = 2026-03-24T19:34:56.137728
MEAN_MOTION    = 14.81844329
ECCENTRICITY   = .00168679
INCLINATION    = 82.4950
RA_OF_ASC_NODE = 206.0002
ARG_OF_PERICENTER = 186.5430
MEAN_ANOMALY   = 173.5567

EPHEMERIS_TYPE = 0
CLASSIFICATION_TYPE = U
NORAD_CAT_ID   = 21423
ELEMENT_SET_NO = 999
REV_AT_EPOCH   = 85531
BSTAR          = .58664335E-4
MEAN_MOTION_DOT = .488E-5
MEAN_MOTION_DDOT = 0

