COSMOS 2058             
1 20465U 90010A   26083.94176195  .00004319  00000+0  25372-3 0  9996
2 20465  82.4683  32.3981 0007472 285.9134  74.1272 15.11453098944544
SL-14 R/B               
1 20466U 90010B   26083.92976849  .00000468  00000+0  53833-4 0  9994
2 20466  82.4991 253.0688 0018428 248.0989 111.8267 14.83582038930749
SL-14 R/B               
1 20511U 90018B   26083.62467469  .00000463  00000+0  55016-4 0  9993
2 20511  82.5230 209.1321 0017223  46.6416 313.6229 14.82159292924791
HST                     
1 20580U 90037B   26083.88381682  .00006792  00000+0  22150-3 0  9993
2 20580  28.4720 296.3339 0001502 302.0996  57.9454 15.29712210775645
SL-16 R/B               
1 20625U 90046B   26083.96663460  .00000179  00000+0  11681-3 0  9999
2 20625  70.9953 265.8270 0016288 279.6356  80.2926 14.15013575850555
COSMOS 2084             
1 20663U 90055A   26083.93044859  .00002305  00000+0  17207-3 0  9996
2 20663  62.7893 283.5930 0014693 194.4805 165.5877 15.05730685938614
SL-6 R/B(2)             
1 20666U 90055D   26083.60146866  .00002110  00000+0  16678-3 0  9999
2 20666  62.7830 203.1371 0027244 350.4966   9.5614 15.03664770940431
SL-8 R/B                
1 20775U 90078B   26083.89376879  .00013022  00000+0  38535-3 0  9995
2 20775  82.9019 237.6291 0359127 322.7617  34.9173 14.89530990811563
SL-8 R/B                
1 21088U 91006B   26083.97321234  .00000088  00000+0  73108-4 0  9993
2 21088  82.9452 158.6837 0022102 356.1289 176.8187 13.77496496766171
OKEAN-3                 
1 21397U 91039A   26083.90597713  .00001995  00000+0  13889-3 0  9999
2 21397  82.5168 322.1016 0012375 280.2361  79.7470 15.04895664867327
COSMOS 2151             
1 21422U 91042A   26083.95818101  .00002359  00000+0  18657-3 0  9997
2 21422  82.4943  68.9430 0012882  16.3032 343.8603 15.00165453865487
SL-14 R/B               
1 21423U 91042B   26083.81592752  .00000488  00000+0  58664-4 0  9998
2 21423  82.4950 206.0002 0016867 186.5430 173.5567 14.81844329855317
